SKYKRAFT-1A             
1 55054U 23001AX  26068.71064616  .00008177  00000+0  30069-3 0  9991
2 55054  97.3349 127.6290 0011277 121.5092 238.7251 15.28083228176529
STARLINK-31629          
1 59255U 24050B   26068.59575197  .00000509  00000+0  29326-4 0  9996
2 59255  53.1601 181.4675 0001154  93.6915 266.4217 15.30181219110539
